KySat-2                   
1 39384U 13064E   13364.06226421  .00018961  00000-0  79681-3 0   238
2 39384 040.5087 017.0798 0003382 239.4175 120.6214 15.22951101  6090
ISS (ZARYA)
1 25544U 98067A   13078.39914318  .00016593  00000-0  26787-3 0  4360
2 25544  51.6472 194.1233 0012553  33.0131  42.6751 15.52943314820762
IRIDIUM 8 [+]           
1 24792U 97020A   13054.07277007  .00000040  00000-0  71306-5 0  2422
2 24792  86.3899 257.0190 0002109  81.6076 278.5351 14.34218080827439
